SIRION PATHFINDER-2     
1 43759U 18099B   26165.40687154  .00004763  00000+0  26191-3 0  9991
2 43759  97.4257 214.5302 0007397 316.7693  43.2958 15.14527061412204
CORVUS BC4              
1 43767U 18099K   26165.07887717  .00004685  00000+0  27274-3 0  9996
2 43767  97.4066 208.1499 0008600  23.1106 337.0510 15.12472471411932
M2 PATHFINDER           
1 45727U 20037E   26165.51981895  .00002028  00000+0  14859-3 0  9994
2 45727  97.8150 356.7219 0012313 154.2345 205.9496 15.04667680325091
NETSAT-4                
1 46504U 20068U   26165.46734883  .00016956  00000+0  37642-3 0  9999
2 46504  97.8597 173.4895 0004231 350.3696   9.7469 15.43784950315353
NETSAT-3                
1 46505U 20068V   26165.47153216  .00017758  00000+0  41007-3 0  9997
2 46505  97.8646 171.7138 0004594  11.6528 348.4823 15.42594931315267
NETSAT-1                
1 46506U 20068W   26165.46203719  .00012483  00000+0  37477-3 0  9997
2 46506  97.8739 166.0669 0005347  40.4020 319.7618 15.34587916314887
NETSAT-2                
1 46507U 20068X   26165.51113744  .00020336  00000+0  41976-3 0  9997
2 46507  97.8610 173.4215 0003763  34.9122 325.2372 15.45896870315329
GREENCUBE (IO-117)      
1 53109U 22080E   26164.29338770 -.00000003  00000+0  00000+0 0  9990
2 53109  70.1444 299.5995 0008910 290.4576  69.5127  6.42583230 91811
SITRO-AIS 5 (KATYS)     
1 57176U 23091L   26165.51837655  .00012173  00000+0  42840-3 0  9995
2 57176  97.5066 229.3922 0012775 111.7137 248.5464 15.29403122163937
SITRO-AIS 6 (CHIRKIN)   
1 57192U 23091AC  26165.49117497  .00009382  00000+0  36798-3 0  9998
2 57192  97.5074 228.4981 0013111 114.7547 245.5057 15.25889554163873
SITRO-AIS 8 (ANOKHIN)   
1 57193U 23091AD  26165.47474513  .00014073  00000+0  45578-3 0  9991
2 57193  97.5063 230.9256 0011815 108.2532 251.9996 15.32070399164035
SITRO-AIS 7 (FARTUSHNIY)
1 57194U 23091AE  26165.49377387  .00009312  00000+0  36870-3 0  9990
2 57194  97.5071 228.3271 0012957 115.6485 244.6092 15.25578562163863
SITRO-AIS 10 (BURDAEV)  
1 57199U 23091AK  26165.51768091  .00017704  00000+0  46693-3 0  9992
2 57199  97.5089 235.9956 0007651  88.3983 271.8139 15.38523162164354
SITRO-AIS 9 (SHCHUKIN)  
1 57201U 23091AM  26165.47817186  .00019385  00000+0  51909-3 0  9994
2 57201  97.5087 235.6875 0007915  88.3439 271.8712 15.38033480164336
SITRO-AIS 12 (SMIRENNIY)
1 57204U 23091AQ  26165.46930811  .00019218  00000+0  50989-3 0  9999
2 57204  97.5099 236.1440 0007481  83.5131 276.6965 15.38323283164358
SITRO-AIS 11 (SHEFFER)  
1 57208U 23091AU  26165.48347181  .00019945  00000+0  52182-3 0  9991
2 57208  97.5098 236.4031 0007326  83.6465 276.5615 15.38749006164377
SITRO-AIS 25            
1 59066U 24039R   26165.49521521  .00002337  00000+0  18393-3 0  9994
2 59066  95.3912 233.2425 0143815 338.2600  21.2559 14.93501881124328
SITRO-AIS 26            
1 59067U 24039S   26165.49622079  .00002242  00000+0  17741-3 0  9996
2 59067  95.3913 233.1415 0144162 338.8341  20.6956 14.93297985124312
SITRO-AIS 27            
1 59068U 24039T   26165.53421468  .00003118  00000+0  24352-3 0  9990
2 59068  95.3917 233.4379 0143094 337.3258  22.1685 14.93718383124342
SITRO-AIS 28            
1 59071U 24039U   26165.51171451  .00002755  00000+0  21532-3 0  9999
2 59071  95.3915 233.4696 0143037 337.2107  22.2809 14.93750061124343
GRBBETA                 
1 60237U 24128C   26165.49893132  .00003250  00000+0  22870-3 0  9995
2 60237  61.9892 225.6981 0040977 134.1230 226.3246 15.06624478105867
OOV-CUBE (TUBSAT-30)    
1 60240U 24128F   26165.46044471  .00002032  00000+0  16374-3 0  9999
2 60240  61.9947 235.0813 0044975 133.0813 227.4056 15.02764725105708
ROBUSTA-3A (MEDITERRAN*)
1 60243U 24128J   26165.48894846  .00005962  00000+0  35465-3 0  9990
2 60243  61.9855 217.7867 0041634 127.6328 232.8557 15.11651785106016
LASARSAT                
1 62391U 24247Q   26164.61689910  .00032689  00000+0  65515-3 0  9991
2 62391  44.9751 282.2745 0008375 311.5212  48.4959 15.46168743 82768
CROCUBE                 
1 62394U 24247T   26165.45792703  .00037784  00000+0  70687-3 0  9999
2 62394  44.9722 274.9271 0008185 319.8602  40.1684 15.48097548 82922
FORESAIL-1 PRIME        
1 66778U 25276DS  26165.16336876  .00004967  00000+0  24279-3 0  9998
2 66778  97.4203 238.4891 0003912 109.6955 250.4701 15.18676939 29944
KNACKSAT-2              
1 67683U 98067XZ  26164.69872930  .00046958  00000+0  57858-3 0  9990
2 67683  51.6303 312.0209 0009611 199.6131 160.4494 15.59677165 19734
