OBJECT_NAME,OBJECT_ID,EPOCH,MEAN_MOTION,ECCENTRICITY,INCLINATION,RA_OF_ASC_NODE,ARG_OF_PERICENTER,MEAN_ANOMALY,EPHEMERIS_TYPE,CLASSIFICATION_TYPE,NORAD_CAT_ID,ELEMENT_SET_NO,REV_AT_EPOCH,BSTAR,MEAN_MOTION_DOT,MEAN_MOTION_DDOT
SIRION PATHFINDER-2,2018-099B,2026-06-14T09:45:53.701056,15.14527061,.0007397,97.4257,214.5302,316.7693,43.2958,0,U,43759,999,41220,.26191E-3,.4763E-4,0
CORVUS BC4,2018-099K,2026-06-14T01:53:34.987488,15.12472471,.00086003,97.4066,208.1499,23.1106,337.0510,0,U,43767,999,41193,.27274487E-3,.4685E-4,0
M2 PATHFINDER,2020-037E,2026-06-14T12:28:32.357280,15.04667680,.0012313,97.8150,356.7219,154.2345,205.9496,0,U,45727,999,32509,.14859E-3,.2028E-4,0
NETSAT-4,2020-068U,2026-06-14T11:12:58.938912,15.43784950,.0004231,97.8597,173.4895,350.3696,9.7469,0,U,46504,999,31535,.37642E-3,.16956E-3,0
NETSAT-3,2020-068V,2026-06-14T11:19:00.378624,15.42594931,.0004594,97.8646,171.7138,11.6528,348.4823,0,U,46505,999,31526,.41007E-3,.17758E-3,0
NETSAT-1,2020-068W,2026-06-14T11:05:20.013216,15.34587916,.0005347,97.8739,166.0669,40.4020,319.7618,0,U,46506,999,31488,.37477E-3,.12483E-3,0
NETSAT-2,2020-068X,2026-06-14T12:16:02.274816,15.45896870,.0003763,97.8610,173.4215,34.9122,325.2372,0,U,46507,999,31532,.41976E-3,.20336E-3,0
GREENCUBE (IO-117),2022-080E,2026-06-13T07:02:28.697280,6.42583230,.00089108,70.1444,299.5995,290.4576,69.5127,0,U,53109,999,9181,0,-.3E-7,0
SITRO-AIS 5 (KATYS),2023-091L,2026-06-14T12:26:27.733920,15.29403122,.0012775,97.5066,229.3922,111.7137,248.5464,0,U,57176,999,16393,.4284E-3,.12173E-3,0
SITRO-AIS 6 (CHIRKIN),2023-091AC,2026-06-14T11:47:17.517408,15.25889554,.0013111,97.5074,228.4981,114.7547,245.5057,0,U,57192,999,16387,.36798E-3,.9382E-4,0
SITRO-AIS 8 (ANOKHIN),2023-091AD,2026-06-14T11:23:37.979232,15.32070399,.0011815,97.5063,230.9256,108.2532,251.9996,0,U,57193,999,16403,.45578E-3,.14073E-3,0
SITRO-AIS 7 (FARTUSHNIY),2023-091AE,2026-06-14T11:51:02.062368,15.25578562,.0012957,97.5071,228.3271,115.6485,244.6092,0,U,57194,999,16386,.3687E-3,.9312E-4,0
SITRO-AIS 10 (BURDAEV),2023-091AK,2026-06-14T12:25:27.630624,15.38523162,.0007651,97.5089,235.9956,88.3983,271.8139,0,U,57199,999,16435,.46693E-3,.17704E-3,0
SITRO-AIS 9 (SHCHUKIN),2023-091AM,2026-06-14T11:28:34.048704,15.38033480,.0007915,97.5087,235.6875,88.3439,271.8712,0,U,57201,999,16433,.51909E-3,.19385E-3,0
SITRO-AIS 12 (SMIRENNIY),2023-091AQ,2026-06-14T11:15:48.220704,15.38323283,.0007481,97.5099,236.1440,83.5131,276.6965,0,U,57204,999,16435,.50989E-3,.19218E-3,0
SITRO-AIS 11 (SHEFFER),2023-091AU,2026-06-14T11:36:11.964384,15.38749006,.0007326,97.5098,236.4031,83.6465,276.5615,0,U,57208,999,16437,.52182E-3,.19945E-3,0
SITRO-AIS 25,2024-039R,2026-06-14T11:53:06.594144,14.93501881,.0143815,95.3912,233.2425,338.2600,21.2559,0,U,59066,999,12432,.18393E-3,.2337E-4,0
SITRO-AIS 26,2024-039S,2026-06-14T11:54:33.476256,14.93297985,.0144162,95.3913,233.1415,338.8341,20.6956,0,U,59067,999,12431,.17741E-3,.2242E-4,0
SITRO-AIS 27,2024-039T,2026-06-14T12:49:16.148352,14.93718383,.0143094,95.3917,233.4379,337.3258,22.1685,0,U,59068,999,12434,.24352E-3,.3118E-4,0
SITRO-AIS 28,2024-039U,2026-06-14T12:16:52.133664,14.93750061,.0143037,95.3915,233.4696,337.2107,22.2809,0,U,59071,999,12434,.21532E-3,.2755E-4,0
GRBBETA,2024-128C,2026-06-14T11:58:27.666048,15.06624478,.0040977,61.9892,225.6981,134.1230,226.3246,0,U,60237,999,10586,.2287E-3,.325E-4,0
OOV-CUBE (TUBSAT-30),2024-128F,2026-06-14T11:03:02.422944,15.02764725,.0044975,61.9947,235.0813,133.0813,227.4056,0,U,60240,999,10570,.16374E-3,.2032E-4,0
ROBUSTA-3A (MEDITERRANEE),2024-128J,2026-06-14T11:44:05.146944,15.11651785,.0041634,61.9855,217.7867,127.6328,232.8557,0,U,60243,999,10601,.35465E-3,.5962E-4,0
LASARSAT,2024-247Q,2026-06-13T14:48:20.082240,15.46168743,.0008375,44.9751,282.2745,311.5212,48.4959,0,U,62391,999,8276,.65515E-3,.32689E-3,0
CROCUBE,2024-247T,2026-06-14T10:59:24.895392,15.48097548,.0008185,44.9722,274.9271,319.8602,40.1684,0,U,62394,999,8292,.70687E-3,.37784E-3,0
FORESAIL-1 PRIME,2025-276DS,2026-06-14T03:55:15.060864,15.18676939,.00039127,97.4203,238.4891,109.6955,250.4701,0,U,66778,999,2994,.24279032E-3,.4967E-4,0
KNACKSAT-2,1998-067XZ,2026-06-13T16:46:10.211520,15.59677165,.00096113,51.6303,312.0209,199.6131,160.4494,0,U,67683,999,1973,.57858406E-3,.46958E-3,0
